{"fetched_at":"2026-03-29T02:12:04Z","count":15717,"tles":[{"name":"COSMOS 2584 (704K)","line1":"1 63130U 25042A   26086.95876139  .00000044  00000+0  00000+0 0  9992","line2":"2 63130  65.0390  75.5619 0007432 238.7630 121.1744  2.13103439  8314","category":"Other"}]}